{"type": "FeatureCollection", "features": [ {"type": "Feature", "properties": {"norad_id": 32384, "name": "GPS BIIRM-5 (PRN 29)", "group": "gps-ops", "lat": 52.601959893261466, "lon": 36.531057712921964, "alt_km": 20129.319352169194, "timestamp": "2025-12-06T05:40:09.500264+00:00", "meta": {"OBJECT_NAME": "GPS BIIRM-5 (PRN 29)", "OBJECT_ID": "2007-062A", "EPOCH": "2025-12-05T07:59:29.428800", "MEAN_MOTION": 2.00576795, "ECCENTRICITY": 0.00322138, "INCLINATION": 55.1888, "RA_OF_ASC_NODE": 281.943, "ARG_OF_PERICENTER": 162.7364, "MEAN_ANOMALY": 9.9869, "EPHEMERIS_TYPE": 0, "CLASSIFICATION_TYPE": "U", "NORAD_CAT_ID": 32384, "ELEMENT_SET_NO": 999, "REV_AT_EPOCH": 13162, "BSTAR": 0, "MEAN_MOTION_DOT": -3.8e-07, "MEAN_MOTION_DDOT": 0}, "tle": {"line1": "1 32384U 07062A   25339.33297950 -.00000038  00000+0  00000+0 0  9995", "line2": "2 32384  55.1888 281.9430 0032213 162.7364   9.9869  2.00576795131629"}}, "geometry": {"type": "Point", "coordinates": [36.531057712921964, 52.601959893261466]}}, {"type": "Feature", "properties": {"norad_id": 32711, "name": "GPS BIIRM-6 (PRN 07)", "group": "gps-ops", "lat": 24.669512058264623, "lon": 176.7915881364074, "alt_km": 20620.588017789214, "timestamp": "2025-12-06T05:40:09.500275+00:00", "meta": {"OBJECT_NAME": "GPS BIIRM-6 (PRN 07)", "OBJECT_ID": "2008-012A", "EPOCH": "2025-12-04T04:45:15.966144", "MEAN_MOTION": 2.00565138, "ECCENTRICITY": 0.0202113, "INCLINATION": 54.4758, "RA_OF_ASC_NODE": 157.7139, "ARG_OF_PERICENTER": 244.8547, "MEAN_ANOMALY": 113.0665, "EPHEMERIS_TYPE": 0, "CLASSIFICATION_TYPE": "U", "NORAD_CAT_ID": 32711, "ELEMENT_SET_NO": 999, "REV_AT_EPOCH": 12984, "BSTAR": 0, "MEAN_MOTION_DOT": 9.2e-07, "MEAN_MOTION_DDOT": 0}, "tle": {"line1": "1 32711U 08012A   25338.19810146  .00000092  00000+0  00000+0 0  9995", "line2": "2 32711  54.4758 157.7139 0202113 244.8547 113.0665  2.00565138129841"}}, "geometry": {"type": "Point", "coordinates": [176.7915881364074, 24.669512058264623]}}, {"type": "Feature", "properties": {"norad_id": 35752, "name": "GPS BIIRM-8 (PRN 05)", "group": "gps-ops", "lat": 38.94017905998241, "lon": 67.95759806496629, "alt_km": 20060.62115930238, "timestamp": "2025-12-06T05:40:09.500287+00:00", "meta": {"OBJECT_NAME": "GPS BIIRM-8 (PRN 05)", "OBJECT_ID": "2009-043A", "EPOCH": "2025-12-01T04:42:32.815296", "MEAN_MOTION": 2.00566259, "ECCENTRICITY": 0.00521242, "INCLINATION": 56.0822, "RA_OF_ASC_NODE": 35.2386, "ARG_OF_PERICENTER": 82.0997, "MEAN_ANOMALY": 288.3285, "EPHEMERIS_TYPE": 0, "CLASSIFICATION_TYPE": "U", "NORAD_CAT_ID": 35752, "ELEMENT_SET_NO": 999, "REV_AT_EPOCH": 11939, "BSTAR": 0, "MEAN_MOTION_DOT": -6.6e-07, "MEAN_MOTION_DDOT": 0}, "tle": {"line1": "1 35752U 09043A   25335.19621314 -.00000066  00000+0  00000+0 0  9994", "line2": "2 35752  56.0822  35.2386 0052124  82.0997 288.3285  2.00566259119397"}}, "geometry": {"type": "Point", "coordinates": [67.95759806496629, 38.94017905998241]}}, {"type": "Feature", "properties": {"norad_id": 36585, "name": "GPS BIIF-1  (PRN 25)", "group": "gps-ops", "lat": 8.439968265296727, "lon": 30.226567163342025, "alt_km": 20262.584567198457, "timestamp": "2025-12-06T05:40:09.500299+00:00", "meta": {"OBJECT_NAME": "GPS BIIF-1  (PRN 25)", "OBJECT_ID": "2010-022A", "EPOCH": "2025-12-04T06:16:58.952352", "MEAN_MOTION": 2.00552666, "ECCENTRICITY": 0.0125761, "INCLINATION": 54.3017, "RA_OF_ASC_NODE": 216.4159, "ARG_OF_PERICENTER": 64.9818, "MEAN_ANOMALY": 117.6828, "EPHEMERIS_TYPE": 0, "CLASSIFICATION_TYPE": "U", "NORAD_CAT_ID": 36585, "ELEMENT_SET_NO": 999, "REV_AT_EPOCH": 11368, "BSTAR": 0, "MEAN_MOTION_DOT": 7e-07, "MEAN_MOTION_DDOT": 0}, "tle": {"line1": "1 36585U 10022A   25338.26179343  .00000070  00000+0  00000+0 0  9993", "line2": "2 36585  54.3017 216.4159 0125761  64.9818 117.6828  2.00552666113689"}}, "geometry": {"type": "Point", "coordinates": [30.226567163342025, 8.439968265296727]}}, {"type": "Feature", "properties": {"norad_id": 38833, "name": "GPS BIIF-3  (PRN 24)", "group": "gps-ops", "lat": -53.19575193337872, "lon": 52.63035557586582, "alt_km": 20622.81352919513, "timestamp": "2025-12-06T05:40:09.500311+00:00", "meta": {"OBJECT_NAME": "GPS BIIF-3  (PRN 24)", "OBJECT_ID": "2012-053A", "EPOCH": "2025-12-04T20:58:35.662368", "MEAN_MOTION": 2.00564858, "ECCENTRICITY": 0.0175571, "INCLINATION": 53.5563, "RA_OF_ASC_NODE": 151.5608, "ARG_OF_PERICENTER": 63.8805, "MEAN_ANOMALY": 297.9293, "EPHEMERIS_TYPE": 0, "CLASSIFICATION_TYPE": "U", "NORAD_CAT_ID": 38833, "ELEMENT_SET_NO": 999, "REV_AT_EPOCH": 9554, "BSTAR": 0, "MEAN_MOTION_DOT": 7.4e-07, "MEAN_MOTION_DDOT": 0}, "tle": {"line1": "1 38833U 12053A   25338.87402387  .00000074  00000+0  00000+0 0  9995", "line2": "2 38833  53.5563 151.5608 0175571  63.8805 297.9293  2.00564858 95548"}}, "geometry": {"type": "Point", "coordinates": [52.63035557586582, -53.19575193337872]}}, {"type": "Feature", "properties": {"norad_id": 39166, "name": "GPS BIIF-4  (PRN 27)", "group": "gps-ops", "lat": 1.5292040973345618, "lon": -82.10244966384963, "alt_km": 19929.626533593146, "timestamp": "2025-12-06T05:40:09.500323+00:00", "meta": {"OBJECT_NAME": "GPS BIIF-4  (PRN 27)", "OBJECT_ID": "2013-023A", "EPOCH": "2025-12-02T17:50:49.750368", "MEAN_MOTION": 2.00565046, "ECCENTRICITY": 0.0137297, "INCLINATION": 54.6608, "RA_OF_ASC_NODE": 276.9746, "ARG_OF_PERICENTER": 48.5033, "MEAN_ANOMALY": 312.6627, "EPHEMERIS_TYPE": 0, "CLASSIFICATION_TYPE": "U", "NORAD_CAT_ID": 39166, "ELEMENT_SET_NO": 999, "REV_AT_EPOCH": 9194, "BSTAR": 0, "MEAN_MOTION_DOT": -3.8e-07, "MEAN_MOTION_DDOT": 0}, "tle": {"line1": "1 39166U 13023A   25336.74363137 -.00000038  00000+0  00000+0 0  9997", "line2": "2 39166  54.6608 276.9746 0137297  48.5033 312.6627  2.00565046 91947"}}, "geometry": {"type": "Point", "coordinates": [-82.10244966384963, 1.5292040973345618]}}, {"type": "Feature", "properties": {"norad_id": 39533, "name": "GPS BIIF-5  (PRN 30)", "group": "gps-ops", "lat": 4.705713670012228, "lon": 160.66233573671772, "alt_km": 20339.511307236437, "timestamp": "2025-12-06T05:40:09.500334+00:00", "meta": {"OBJECT_NAME": "GPS BIIF-5  (PRN 30)", "OBJECT_ID": "2014-008A", "EPOCH": "2025-12-04T17:34:38.743104", "MEAN_MOTION": 2.00573893, "ECCENTRICITY": 0.00790018, "INCLINATION": 53.63, "RA_OF_ASC_NODE": 157.2513, "ARG_OF_PERICENTER": 226.4017, "MEAN_ANOMALY": 132.9667, "EPHEMERIS_TYPE": 0, "CLASSIFICATION_TYPE": "U", "NORAD_CAT_ID": 39533, "ELEMENT_SET_NO": 999, "REV_AT_EPOCH": 8578, "BSTAR": 0, "MEAN_MOTION_DOT": 8.2e-07, "MEAN_MOTION_DDOT": 0}, "tle": {"line1": "1 39533U 14008A   25338.73239286  .00000082  00000+0  00000+0 0  9995", "line2": "2 39533  53.6300 157.2513 0079001 226.4017 132.9667  2.00573893 85784"}}, "geometry": {"type": "Point", "coordinates": [160.66233573671772, 4.705713670012228]}}, {"type": "Feature", "properties": {"norad_id": 39741, "name": "GPS BIIF-6  (PRN 06)", "group": "gps-ops", "lat": 15.499127199436918, "lon": 148.47582350638532, "alt_km": 20275.673349419016, "timestamp": "2025-12-06T05:40:09.500346+00:00", "meta": {"OBJECT_NAME": "GPS BIIF-6  (PRN 06)", "OBJECT_ID": "2014-026A", "EPOCH": "2025-12-04T12:23:41.363808", "MEAN_MOTION": 2.0056177, "ECCENTRICITY": 0.003895, "INCLINATION": 56.5867, "RA_OF_ASC_NODE": 339.0964, "ARG_OF_PERICENTER": 318.2284, "MEAN_ANOMALY": 41.4951, "EPHEMERIS_TYPE": 0, "CLASSIFICATION_TYPE": "U", "NORAD_CAT_ID": 39741, "ELEMENT_SET_NO": 999, "REV_AT_EPOCH": 8463, "BSTAR": 0, "MEAN_MOTION_DOT": -7e-07, "MEAN_MOTION_DDOT": 0}, "tle": {"line1": "1 39741U 14026A   25338.51645097 -.00000070  00000+0  00000+0 0  9991", "line2": "2 39741  56.5867 339.0964 0038950 318.2284  41.4951  2.00561770 84633"}}, "geometry": {"type": "Point", "coordinates": [148.47582350638532, 15.499127199436918]}}, {"type": "Feature", "properties": {"norad_id": 40105, "name": "GPS BIIF-7  (PRN 09)", "group": "gps-ops", "lat": 54.345781649296754, "lon": -159.20072185539752, "alt_km": 20093.647776020185, "timestamp": "2025-12-06T05:40:09.500358+00:00", "meta": {"OBJECT_NAME": "GPS BIIF-7  (PRN 09)", "OBJECT_ID": "2014-045A", "EPOCH": "2025-12-03T14:34:35.183424", "MEAN_MOTION": 2.00571854, "ECCENTRICITY": 0.00329245, "INCLINATION": 55.2235, "RA_OF_ASC_NODE": 96.2633, "ARG_OF_PERICENTER": 119.6263, "MEAN_ANOMALY": 240.6737, "EPHEMERIS_TYPE": 0, "CLASSIFICATION_TYPE": "U", "NORAD_CAT_ID": 40105, "ELEMENT_SET_NO": 999, "REV_AT_EPOCH": 8215, "BSTAR": 0, "MEAN_MOTION_DOT": -7e-08, "MEAN_MOTION_DDOT": 0}, "tle": {"line1": "1 40105U 14045A   25337.60735166 -.00000007  00000+0  00000+0 0  9994", "line2": "2 40105  55.2235  96.2633 0032924 119.6263 240.6737  2.00571854 82158"}}, "geometry": {"type": "Point", "coordinates": [-159.20072185539752, 54.345781649296754]}}, {"type": "Feature", "properties": {"norad_id": 40294, "name": "GPS BIIF-8  (PRN 03)", "group": "gps-ops", "lat": -6.674002088037787, "lon": -137.20151435207495, "alt_km": 20260.08715863568, "timestamp": "2025-12-06T05:40:09.500370+00:00", "meta": {"OBJECT_NAME": "GPS BIIF-8  (PRN 03)", "OBJECT_ID": "2014-068A", "EPOCH": "2025-12-03T11:38:05.638272", "MEAN_MOTION": 2.00564094, "ECCENTRICITY": 0.00608191, "INCLINATION": 56.851, "RA_OF_ASC_NODE": 38.5042, "ARG_OF_PERICENTER": 69.3788, "MEAN_ANOMALY": 291.3251, "EPHEMERIS_TYPE": 0, "CLASSIFICATION_TYPE": "U", "NORAD_CAT_ID": 40294, "ELEMENT_SET_NO": 999, "REV_AT_EPOCH": 8128, "BSTAR": 0, "MEAN_MOTION_DOT": -6.5e-07, "MEAN_MOTION_DDOT": 0}, "tle": {"line1": "1 40294U 14068A   25337.48478748 -.00000065  00000+0  00000+0 0  9998", "line2": "2 40294  56.8510  38.5042 0060819  69.3788 291.3251  2.00564094 81285"}}, "geometry": {"type": "Point", "coordinates": [-137.20151435207495, -6.674002088037787]}}]}